CCSDS_OMM_VERS = 2.0
CREATION_DATE = 2023-07-01T16:57:13.417364
ORIGINATOR = N/A

OBJECT_NAME          = ISS (ZARYA)
OBJECT_ID            = 1998-067A
CENTER_NAME          = EARTH
REF_FRAME            = CIRF
TIME_SYSTEM          = UTC
MEAN_ELEMENT_THEORY  = ECKSTEIN-HECHLER


EPOCH                = 2008-09-20T12:25:40.104192
SEMI_MAJOR_AXIS      =  6730.963463 [km]
ECCENTRICITY         =   0.0006703
INCLINATION          =  51.6416 [deg]
RA_OF_ASC_NODE       = 247.3510 [deg]
ARG_OF_PERICENTER    = 130.5360 [deg]
MEAN_ANOMALY         = 325.0288 [deg]
GM                   = 398600.4 [km**3/s**2]
